NORAD_CAT_ID,OBJECT_NAME,OBJECT_TYPE,EPOCH,MEAN_MOTION,ECCENTRICITY,INCLINATION,RA_OF_ASC_NODE,ARG_OF_PERICENTER,MEAN_ANOMALY,BSTAR,MEAN_MOTION_DOT,MEAN_MOTION_DDOT,TLE_LINE0,TLE_LINE1,TLE_LINE2,SEMIMAJOR_AXIS,PERIOD,APOGEE,PERIGEE,DECAYED
53786.0,STARLINK-4631,PAYLOAD,2022-12-31 08:00:01,15.16167883,0.0002018,53.2171,91.0828,34.1874,204.5157,-0.023555,-0.00433786,0.0,0 STARLINK-4631,1 53786U 22111P   22365.33334491 -.00433786  00000-0 -23555-1 0  9998,2 53786  53.2171  91.0828 0002018  34.1874 204.5157 15.16167883 17240,6895.571999999999,94.976,518.8290000000002,516.0459999999998,0.0
53786.0,STARLINK-4631,PAYLOAD,2022-12-31 14:00:01,15.15933269,0.0001763,53.2168,89.9489,46.2597,117.6425,-0.023183,-0.00424604,0.0,0 STARLINK-4631,1 53786U 22111P   22365.58334491 -.00424604  00000-0 -23183-1 0  9991,2 53786  53.2168  89.9489 0001763  46.2597 117.6425 15.15933269  1307,6896.284000000002,94.991,519.365,516.933,0.0
53786.0,STARLINK-4631,PAYLOAD,2022-12-31 22:00:00,15.15636099,0.0001862,53.2166,88.4355,39.1755,144.6664,-0.023936,-0.00434124,0.0,0 STARLINK-4631,1 53786U 22111P   22365.91667824 -.00434124  00000-0 -23936-1 0  9991,2 53786  53.2166  88.4355 0001862  39.1755 144.6664 15.15636099  1304,6897.185,95.01,520.3340000000002,517.766,0.0
53786.0,STARLINK-4631,PAYLOAD,2023-01-01 10:00:00,15.15180767,0.0002059,53.2176,86.1691,31.83,1.2398,-0.024274,-0.00434564,0.0,0 STARLINK-4631,1 53786U 22111P   23001.41667824 -.00434564  00000-0 -24274-1 0  9998,2 53786  53.2176  86.1691 0002059  31.8300   1.2398 15.15180767 17414,6898.566999999999,95.038,521.852,519.011,0.0
53786.0,STARLINK-4631,PAYLOAD,2023-01-01 14:00:01,15.15022058,0.0001882,53.2168,85.4136,42.2047,180.4285,-0.023765,-0.00424137,0.0,0 STARLINK-4631,1 53786U 22111P   23001.58334491 -.00424137  00000-0 -23765-1 0  9996,2 53786  53.2168  85.4136 0001882  42.2047 180.4285 15.15022058  1302,6899.049,95.048,522.212,519.615,0.0
53786.0,STARLINK-4631,PAYLOAD,2023-01-02 00:00:00,15.14648694,0.0001948,53.217,83.5244,34.0354,302.0977,-0.024622,-0.00434194,0.0,0 STARLINK-4631,1 53786U 22111P   23002.00001157 -.00434194  00000-0 -24622-1 0  9991,2 53786  53.2170  83.5244 0001948  34.0354 302.0977 15.14648694  1306,6900.182,95.072,523.391,520.703,0.0
53786.0,STARLINK-4631,PAYLOAD,2023-01-02 14:00:01,15.14111645,0.0001774999999999,53.2168,80.8844,44.7202,233.3585,-0.024479,-0.00425647,0.0,0 STARLINK-4631,1 53786U 22111P   23002.58334491 -.00425647  00000-0 -24479-1 0  9997,2 53786  53.2168  80.8844 0001775  44.7202 233.3585 15.14111645 17586,6901.814,95.105,524.904,522.4540000000002,0.0
53786.0,STARLINK-4631,PAYLOAD,2023-01-02 22:00:00,15.13812761,0.0001937,53.2164,79.3748,36.2967,259.533,-0.025231,-0.00434506,0.0,0 STARLINK-4631,1 53786U 22111P   23002.91667824 -.00434506  00000-0 -25231-1 0  9994,2 53786  53.2164  79.3748 0001937  36.2967 259.5330 15.13812761  1309,6902.722,95.124,525.924,523.25,0.0
53786.0,STARLINK-4631,PAYLOAD,2023-01-03 14:00:01,15.13199072,0.0001671,53.2168,76.3619,48.6638,281.5757,-0.025039,-0.00424382,0.0,0 STARLINK-4631,1 53786U 22111P   23003.58334491 -.00424382  00000-0 -25039-1 0  9996,2 53786  53.2168  76.3619 0001671  48.6638 281.5757 15.13199072  1305,6904.5880000000025,95.163,527.607,525.3,0.0
53786.0,STARLINK-4631,PAYLOAD,2023-01-03 16:00:01,15.1312778,0.0001662,53.217,75.9857,46.3268,18.1715,-0.025467,-0.00430409,0.0,0 STARLINK-4631,1 53786U 22111P   23003.66668981 -.00430409  00000-0 -25467-1 0  9991,2 53786  53.2170  75.9857 0001662  46.3268  18.1715 15.13127780 17752,6904.805,95.167,527.818,525.523,0.0
53786.0,STARLINK-4631,PAYLOAD,2023-01-04 14:00:01,15.12290693,0.0001811999999999,53.2168,71.8457,40.5804,338.5953,-0.02598,-0.00428975,0.0,0 STARLINK-4631,1 53786U 22111P   23004.58335648 -.00428975  00000-0 -25980-1 0  9999,2 53786  53.2168  71.8457 0001812  40.5804 338.5953 15.12290693  1309,6907.353,95.22,530.47,527.966,0.0
53786.0,STARLINK-4631,PAYLOAD,2023-01-04 22:00:00,15.11989474,0.0001952,53.2166,70.3399,32.8029,1.8713,-0.026493,-0.00433507,0.0,0 STARLINK-4631,1 53786U 22111P   23004.91667824 -.00433507  00000-0 -26493-1 0  9997,2 53786  53.2166  70.3399 0001952  32.8029   1.8713 15.11989474  1309,6908.27,95.239,531.484,528.7869999999998,0.0
53786.0,STARLINK-4631,PAYLOAD,2023-01-05 00:00:00,15.11913295,0.0001976,53.2172,69.9643,34.0885,94.4188,-0.026481,-0.00432453,0.0,0 STARLINK-4631,1 53786U 22111P   23005.00001157 -.00432453  00000-0 -26481-1 0  9995,2 53786  53.2172  69.9643 0001976  34.0885  94.4188 15.11913295 17952,6908.502,95.244,531.7330000000002,529.002,0.0
53786.0,STARLINK-4631,PAYLOAD,2023-01-05 14:00:01,15.11379336,0.0001862,53.2166,67.3354,39.2205,25.4814,-0.026662,-0.00429157,0.0,0 STARLINK-4631,1 53786U 22111P   23005.58334491 -.00429157  00000-0 -26662-1 0  9996,2 53786  53.2166  67.3354 0001862  39.2205  25.4814 15.11379336  1307,6910.13,95.277,533.281,530.7080000000002,0.0
53786.0,STARLINK-4631,PAYLOAD,2023-01-05 20:00:01,15.11156175,0.0001739,53.2174,66.2086,41.5341,304.0502,-0.027346,-0.00436955,0.0,0 STARLINK-4631,1 53786U 22111P   23005.83334491 -.00436955  00000-0 -27346-1 0  9998,2 53786  53.2174  66.2086 0001739  41.5341 304.0502 15.11156175  1300,6910.81,95.291,533.877,531.4730000000002,0.0
53786.0,STARLINK-4631,PAYLOAD,2023-01-06 08:00:01,15.10697625,0.0002034,53.217,63.9564,36.191,150.5462,-0.027365,-0.00432034,0.0,0 STARLINK-4631,1 53786U 22111P   23006.33334491 -.00432034  00000-0 -27365-1 0  9999,2 53786  53.2170  63.9564 0002034  36.1910 150.5462 15.10697625 18151,6912.208000000001,95.32,535.479,532.6669999999998,0.0
53786.0,STARLINK-4631,PAYLOAD,2023-01-06 22:00:00,15.10162462,0.0001518,53.2169,61.3304,334.3751,146.0032,-0.027458,-0.00427364,0.0,0 STARLINK-4631,1 53786U 22111P   23006.91667824 -.00427364  00000-0 -27458-1 0  9995,2 53786  53.2169  61.3304 0001518 334.3751 146.0032 15.10162462  1303,6913.840999999999,95.354,536.756,534.6569999999998,0.0
53786.0,STARLINK-4631,PAYLOAD,2023-01-07 06:00:00,15.09863391,0.0001958,53.2166,59.8311,37.2772,96.1051,-0.028168,-0.00434399,0.0,0 STARLINK-4631,1 53786U 22111P   23007.25001157 -.00434399  00000-0 -28168-1 0  9999,2 53786  53.2166  59.8311 0001958  37.2772  96.1051 15.09863391  1303,6914.754,95.373,537.9730000000002,535.265,0.0
53786.0,STARLINK-4631,PAYLOAD,2023-01-07 14:00:01,15.09549247,0.0001876,53.2168,58.3345,42.2565,103.7699,-0.027261,-0.00417748,0.0,0 STARLINK-4631,1 53786U 22111P   23007.58334491 -.00417748  00000-0 -27261-1 0  9997,2 53786  53.2168  58.3345 0001876  42.2565 103.7699 15.09549247 18347,6915.713000000002,95.393,538.876,536.281,0.0
53786.0,STARLINK-4631,PAYLOAD,2023-01-08 00:00:00,15.09099084,0.0001434,53.2172,56.46100000000001,327.1857,284.1385,-0.012044,-0.00188331,0.0,0 STARLINK-4631,1 53786U 22111P   23008.00001157 -.00188331  00000-0 -12044-1 0  9991,2 53786  53.2172  56.4610 0001434 327.1857 284.1385 15.09099084  1308,6917.089,95.421,539.945,537.962,0.0
53786.0,STARLINK-4631,PAYLOAD,2023-01-08 06:00:00,15.09023874,0.000179,53.2167,55.3381,40.6974,129.5047,-0.017058,-0.00263318,0.0,0 STARLINK-4631,1 53786U 22111P   23008.25001157 -.00263318  00000-0 -17058-1 0  9997,2 53786  53.2167  55.3381 0001790  40.6974 129.5047 15.09023874 18441,6917.318,95.426,540.422,537.945,0.0
53786.0,STARLINK-4631,PAYLOAD,2023-01-08 14:00:01,15.08817521,0.0001945,53.2135,53.8371,38.142,143.6817,0.0037136,0.00059275,0.0,0 STARLINK-4631,1 53786U 22111P   23008.58334491  .00059275  00000-0  37136-2 0  9996,2 53786  53.2135  53.8371 0001945  38.1420 143.6817 15.08817521  1306,6917.949000000001,95.439,541.16,538.469,0.0
53786.0,STARLINK-4631,PAYLOAD,2023-01-08 22:00:00,15.09056192,0.0001907,53.216,52.3446,39.0541,154.2954,-0.017974,-0.00277161,0.0,0 STARLINK-4631,1 53786U 22111P   23008.91667824 -.00277161  00000-0 -17974-1 0  9997,2 53786  53.2160  52.3446 0001907  39.0541 154.2954 15.09056192 18547,6917.22,95.424,540.404,537.766,0.0
53786.0,STARLINK-4631,PAYLOAD,2023-01-09 08:00:01,15.0882437,0.0001954,53.21100000000001,50.4693,44.8833,253.0066,-0.0016037,-0.0002571,0.0,0 STARLINK-4631,1 53786U 22111P   23009.33335648 -.00025710  00000-0 -16037-2 0  9991,2 53786  53.2110  50.4693 0001954  44.8833 253.0066 15.08824370 18615,6917.928000000001,95.439,541.145,538.441,0.0
53786.0,STARLINK-4631,PAYLOAD,2023-01-09 14:00:01,15.08799379,0.0002031,53.2108,49.3474,42.2445,174.2666,0.002277,0.00036097,0.0,0 STARLINK-4631,1 53786U 22111P   23009.58334491  .00036097  00000-0  22770-2 0  9992,2 53786  53.2108  49.3474 0002031  42.2445 174.2666 15.08799379  1302,6918.005,95.44,541.275,538.465,0.0
53786.0,STARLINK-4631,PAYLOAD,2023-01-09 22:00:00,15.08800549,0.0001855,53.2107,47.8491,46.9598,181.1214,0.0017761,0.00028061,0.0,0 STARLINK-4631,1 53786U 22111P   23009.91667824  .00028061  00000-0  17761-2 0  9994,2 53786  53.2107  47.8491 0001855  46.9598 181.1214 15.08800549 18694,6918.001,95.44,541.149,538.5830000000002,0.0
53786.0,STARLINK-4631,PAYLOAD,2023-01-10 00:00:00,15.08795441,0.0001851,53.2106,47.4748,48.8809,272.0927,0.0027503,0.00043702,0.0,0 STARLINK-4631,1 53786U 22111P   23010.00001157  .00043702  00000-0  27503-2 0  9991,2 53786  53.2106  47.4748 0001851  48.8809 272.0927 15.08795441  1301,6918.017,95.44,541.1619999999998,538.601,0.0
53786.0,STARLINK-4631,PAYLOAD,2023-01-10 10:00:00,15.08838899,0.0001794,53.2176,45.6137,37.5321,28.1245,-0.00026517,-4.506e-05,0.0,0 STARLINK-4631,1 53786U 22111P   23010.41667824 -.00004506  00000-0 -26517-3 0  9991,2 53786  53.2176  45.6137 0001794  37.5321  28.1245 15.08838899 18777,6917.884,95.438,540.99,538.508,0.0
53786.0,STARLINK-4631,PAYLOAD,2023-01-10 14:00:01,15.08852869,0.000198,53.2149,44.8576,40.2683,211.0788,0.0020101,0.00031859,0.0,0 STARLINK-4631,1 53786U 22111P   23010.58334491  .00031859  00000-0  20101-2 0  9991,2 53786  53.2149  44.8576 0001980  40.2683 211.0788 15.08852869 18794,6917.840999999999,95.437,541.076,538.336,0.0
